OBJECT_NAME,OBJECT_ID,EPOCH,MEAN_MOTION,ECCENTRICITY,INCLINATION,RA_OF_ASC_NODE,ARG_OF_PERICENTER,MEAN_ANOMALY,EPHEMERIS_TYPE,CLASSIFICATION_TYPE,NORAD_CAT_ID,ELEMENT_SET_NO,REV_AT_EPOCH,BSTAR,MEAN_MOTION_DOT,MEAN_MOTION_DDOT
TDRS 13,2017-047A,2026-07-08T13:38:43.089792,1.00271747,.00148847,3.4570,3.2316,110.7110,5.8518,0,U,42915,999,3256,0,-.87E-6,0
QZS-3 (MICHIBIKI-3),2017-048A,2026-07-08T14:18:09.312768,1.00275716,.00025802,0.0774,220.7789,260.1452,147.1435,0,U,42917,999,3247,0,-.333E-5,0
AMAZONAS 5,2017-053A,2026-07-07T04:54:06.742080,1.00270213,.00012917,0.0317,325.8954,108.3435,223.4694,0,U,42934,999,3224,0,-.267E-5,0
ASIASAT 9,2017-057A,2026-07-08T19:24:44.354880,1.00264424,.0002343,0.0474,66.5994,33.7715,239.7303,0,U,42942,999,3207,0,0,0
INTELSAT 37E (IS-37E),2017-059A,2026-07-08T10:11:34.075680,1.00269878,.00024855,0.0254,41.0662,74.7591,305.4497,0,U,42950,999,3227,0,0,0
BSAT-4A,2017-059B,2026-07-08T14:16:50.548800,1.00271609,.00034879,0.0327,0.8821,77.6988,172.0118,0,U,42951,999,3201,0,-.335E-5,0
QZS-4 (MICHIBIKI-4),2017-062A,2026-07-08T07:28:13.833408,1.00292396,.07473194,40.0964,343.2180,268.4114,285.3906,0,U,42965,999,3201,0,-.31E-5,0
SES-11 (ECHOSTAR 105),2017-063A,2026-07-08T13:12:00.649728,1.00270872,.00026367,0.0141,11.8020,98.3310,269.4189,0,U,42967,999,3193,0,-.74E-6,0
KOREASAT 5A,2017-067A,2026-07-08T14:49:28.643232,1.00271325,.00009309,0.0103,1.7296,107.3795,152.9794,0,U,42984,999,3174,0,-.343E-5,0
ALCOMSAT 1,2017-078A,2026-07-08T10:09:11.803392,1.00271898,.00022626,0.0279,88.9285,21.8522,303.1078,0,U,43039,999,3150,0,-.171E-5,0
SBIRS GEO-3 (USA 282),2018-009A,2026-07-08T12:04:38.557056,1.00272065,.00018684,2.1986,13.0485,95.2642,199.9086,0,U,43162,999,3105,0,.141E-5,0
AL YAH 3,2018-012A,2026-07-08T10:10:56.635968,1.00271712,.00036396,1.6033,82.8575,24.3634,311.7872,0,U,43174,999,3105,0,-.142E-5,0
SES-14,2018-012B,2026-07-08T03:19:38.771616,1.00270707,.00010395,0.0141,30.9527,86.1928,171.3591,0,U,43175,999,723,0,-.263E-5,0
GOES 17,2018-022A,2026-07-08T13:16:30.218592,1.00271509,.00006011,0.9884,85.3672,67.8599,242.9102,0,U,43226,999,3063,0,-.168E-5,0
HISPASAT 30W-6,2018-023A,2026-07-08T01:34:53.366880,1.00271312,.00053594,0.0428,48.0519,38.5644,193.1423,0,U,43228,999,3061,0,-.201E-5,0
SUPERBIRD-B3,2018-033A,2026-07-08T12:45:33.186240,1.00271149,.0001162,0.0234,293.7804,202.3607,143.7433,0,U,43271,999,3027,0,-.77E-6,0
HYLAS 4,2018-033B,2026-07-08T03:46:38.460576,1.00272072,.00008428,0.0115,316.8071,174.7813,177.6843,0,U,43272,999,3027,0,-.218E-5,0
IRNSS-1I,2018-035A,2026-07-06T20:05:50.528832,1.00279237,.00180874,28.7973,73.8917,180.4002,27.0525,0,U,43286,999,3027,0,.79E-6,0
USA 283,2018-036A,2026-07-07T12:40:21.060192,1.00268378,.0000938,0.0144,201.6353,5.6408,42.3965,0,U,43339,999,2549,0,-.302E-5,0
COSMOS 2526,2018-037A,2026-07-08T19:26:29.185728,1.00272062,.0000324,0.0320,92.7134,117.7881,135.9410,0,U,43432,999,3017,0,-.33E-5,0
APSTAR-6C,2018-041A,2026-07-08T13:13:28.083072,1.00271775,.0000454,0.0283,330.2560,334.6813,313.9461,0,U,43450,999,3002,0,-.303E-5,0
BANGABANDHUSAT-1,2018-044A,2026-07-08T14:15:36.205056,1.00266597,.00015003,0.0195,54.0427,55.2531,150.2337,0,U,43463,999,2992,0,0,0
SES-12,2018-049A,2026-07-08T10:43:45.988320,1.00271530,.00007425,0.0108,8.4335,254.6424,279.2653,0,U,43488,999,2963,0,-.255E-5,0
FENGYUN 2H,2018-050A,2026-07-08T14:04:37.259040,1.00268275,.00020927,3.0828,78.8299,126.2079,11.8847,0,U,43491,999,2965,0,-.115E-5,0
BEIDOU-2 IGSO-7,2018-057A,2026-07-01T21:23:21.693984,1.00246939,.01049468,55.1981,162.9292,237.8611,308.6338,0,U,43539,999,2927,0,-.33E-6,0
TELSTAR 19V,2018-059A,2026-07-08T11:41:21.697152,1.00270658,.00028949,0.0371,178.0427,310.2084,270.5350,0,U,43562,999,2935,0,-.265E-5,0
TELKOM 4 (MERAH PUTIH),2018-064A,2026-07-08T14:35:26.968992,1.00269849,.00016398,0.0196,50.3756,95.9177,107.1239,0,U,43587,999,2909,0,-.329E-5,0
TELSTAR 18V,2018-069A,2026-07-08T14:21:21.055968,1.00270592,.00018148,0.0204,296.1794,175.0493,168.6692,0,U,43611,999,2885,0,-.279E-5,0
AZERSPACE 2 (IS-38),2018-074A,2026-07-08T13:54:49.046112,1.00271404,.00012243,0.0252,32.3037,88.8855,59.1554,0,U,43632,999,2866,0,0,0
HORIZONS-3E,2018-074B,2026-07-07T21:23:33.910080,1.00267153,.00008947,0.0461,215.8693,83.2563,116.6260,0,U,43633,999,2854,0,-.16E-6,0
AEHF-4 (USA 288),2018-079A,2026-07-08T13:22:52.109184,1.00264855,.00595123,1.4390,5.6961,354.8022,59.0220,0,U,43651,999,2851,0,-.26E-5,0
BEIDOU-3 G1,2018-085A,2026-07-08T14:44:12.597216,1.00273319,.00083484,2.9193,96.8106,354.8214,215.9204,0,U,43683,999,2827,0,-.96E-6,0
