TDRS 13                 
1 42915U 17047A   26189.56855428 -.00000087  00000+0  00000+0 0  9993
2 42915   3.4570   3.2316 0014884 110.7110   5.8518  1.00271747 32565
QZS-3 (MICHIBIKI-3)     
1 42917U 17048A   26189.59594112 -.00000333  00000+0  00000+0 0  9993
2 42917   0.0774 220.7789 0002580 260.1452 147.1435  1.00275716 32473
AMAZONAS 5              
1 42934U 17053A   26188.20424470 -.00000267  00000+0  00000+0 0  9990
2 42934   0.0317 325.8954 0001291 108.3435 223.4694  1.00270213 32245
ASIASAT 9               
1 42942U 17057A   26189.80884670  .00000000  00000+0  00000+0 0  9996
2 42942   0.0474  66.5994 0002343  33.7715 239.7303  1.00264424 32077
INTELSAT 37E (IS-37E)   
1 42950U 17059A   26189.42469995  .00000000  00000+0  00000+0 0  9994
2 42950   0.0254  41.0662 0002485  74.7591 305.4497  1.00269878 32271
BSAT-4A                 
1 42951U 17059B   26189.59502950 -.00000335  00000+0  00000+0 0  9994
2 42951   0.0327   0.8821 0003487  77.6988 172.0118  1.00271609 32013
QZS-4 (MICHIBIKI-4)     
1 42965U 17062A   26189.31127122 -.00000310  00000+0  00000+0 0  9990
2 42965  40.0964 343.2180 0747319 268.4114 285.3906  1.00292396 32010
SES-11 (ECHOSTAR 105)   
1 42967U 17063A   26189.55000752 -.00000074  00000+0  00000+0 0  9995
2 42967   0.0141  11.8020 0002636  98.3310 269.4189  1.00270872 31931
KOREASAT 5A             
1 42984U 17067A   26189.61769263 -.00000343  00000+0  00000+0 0  9993
2 42984   0.0103   1.7296 0000930 107.3795 152.9794  1.00271325 31745
ALCOMSAT 1              
1 43039U 17078A   26189.42305328 -.00000171  00000+0  00000+0 0  9993
2 43039   0.0279  88.9285 0002262  21.8522 303.1078  1.00271898 31508
SBIRS GEO-3 (USA 282)   
1 43162U 18009A   26189.50322404  .00000141  00000+0  00000+0 0  9994
2 43162   2.1986  13.0485 0001868  95.2642 199.9086  1.00272065 31050
AL YAH 3                
1 43174U 18012A   26189.42426662 -.00000142  00000+0  00000+0 0  9995
2 43174   1.6033  82.8575 0003639  24.3634 311.7872  1.00271712 31051
SES-14                  
1 43175U 18012B   26189.13864319 -.00000263  00000+0  00000+0 0  9993
2 43175   0.0141  30.9527 0001039  86.1928 171.3591  1.00270707  7234
GOES 17                 
1 43226U 18022A   26189.55312753 -.00000168  00000+0  00000+0 0  9991
2 43226   0.9884  85.3672 0000601  67.8599 242.9102  1.00271509 30637
HISPASAT 30W-6          
1 43228U 18023A   26189.06589545 -.00000201  00000+0  00000+0 0  9993
2 43228   0.0428  48.0519 0005359  38.5644 193.1423  1.00271312 30614
SUPERBIRD-B3            
1 43271U 18033A   26189.53163410 -.00000077  00000+0  00000+0 0  9994
2 43271   0.0234 293.7804 0001162 202.3607 143.7433  1.00271149 30273
HYLAS 4                 
1 43272U 18033B   26189.15738959 -.00000218  00000+0  00000+0 0  9996
2 43272   0.0115 316.8071 0000842 174.7813 177.6843  1.00272072 30277
IRNSS-1I                
1 43286U 18035A   26187.83739038  .00000079  00000+0  00000+0 0  9999
2 43286  28.7973  73.8917 0018087 180.4002  27.0525  1.00279237 30279
USA 283                 
1 43339U 18036A   26188.52802153 -.00000302  00000+0  00000+0 0  9995
2 43339   0.0144 201.6353 0000938   5.6408  42.3965  1.00268378 25490
COSMOS 2526             
1 43432U 18037A   26189.81006002 -.00000330  00000+0  00000+0 0  9993
2 43432   0.0320  92.7134 0000324 117.7881 135.9410  1.00272062 30175
APSTAR-6C               
1 43450U 18041A   26189.55101948 -.00000303  00000+0  00000+0 0  9994
2 43450   0.0283 330.2560 0000454 334.6813 313.9461  1.00271775 30023
BANGABANDHUSAT-1        
1 43463U 18044A   26189.59416904  .00000000  00000+0  00000+0 0  9999
2 43463   0.0195  54.0427 0001500  55.2531 150.2337  1.00266597 29925
SES-12                  
1 43488U 18049A   26189.44706005 -.00000255  00000+0  00000+0 0  9992
2 43488   0.0108   8.4335 0000742 254.6424 279.2653  1.00271530 29634
FENGYUN 2H              
1 43491U 18050A   26189.58654235 -.00000115  00000+0  00000+0 0  9995
2 43491   3.0828  78.8299 0002092 126.2079  11.8847  1.00268275 29659
BEIDOU-2 IGSO-7         
1 43539U 18057A   26182.89122331 -.00000033  00000+0  00000+0 0  9998
2 43539  55.1981 162.9292 0104946 237.8611 308.6338  1.00246939 29273
TELSTAR 19V             
1 43562U 18059A   26189.48705668 -.00000265  00000+0  00000+0 0  9995
2 43562   0.0371 178.0427 0002894 310.2084 270.5350  1.00270658 29353
TELKOM 4 (MERAH PUTIH)  
1 43587U 18064A   26189.60795103 -.00000329  00000+0  00000+0 0  9996
2 43587   0.0196  50.3756 0001639  95.9177 107.1239  1.00269849 29090
TELSTAR 18V             
1 43611U 18069A   26189.59816037 -.00000279  00000+0  00000+0 0  9991
2 43611   0.0204 296.1794 0001814 175.0493 168.6692  1.00270592 28851
AZERSPACE 2 (IS-38)     
1 43632U 18074A   26189.57973433  .00000000  00000+0  00000+0 0  9993
2 43632   0.0252  32.3037 0001224  88.8855  59.1554  1.00271404 28668
HORIZONS-3E             
1 43633U 18074B   26188.89136470 -.00000016  00000+0  00000+0 0  9998
2 43633   0.0461 215.8693 0000894  83.2563 116.6260  1.00267153 28540
AEHF-4 (USA 288)        
1 43651U 18079A   26189.55754756 -.00000260  00000+0  00000+0 0  9991
2 43651   1.4390   5.6961 0059512 354.8022  59.0220  1.00264855 28516
BEIDOU-3 G1             
1 43683U 18085A   26189.61403469 -.00000096  00000+0  00000+0 0  9999
2 43683   2.9193  96.8106 0008348 354.8214 215.9204  1.00273319 28278
